      2.10          N: GNSS NAV DATA                        RINEX VERSION / TYPE
fic2rin                                 09/02/2024 00:59:01 PGM / RUN BY / DATE
                                                            END OF HEADER
17 24  9  1  2  0  0.0  .639723148197D-03 -.104591890704D-10  .000000000000D+00
     .190000000000D+03  .162500000000D+01  .437303929750D-08 -.447174367864D+00
     .100582838058D-06  .134850293398D-01  .102389603853D-04  .515378803253D+04
     .720000000000D+04 -.147148966789D-06 -.717054558669D+00 -.260770320892D-07
     .967495602292D+00  .190031250000D+03 -.130821937561D+01 -.806033574534D-08
    -.558237538548D-09  .100000000000D+01  .233000000000D+04  .000000000000D+00
     .240000000000D+01  .000000000000D+00 -.111758708954D-07  .190000000000D+03
     .000000000000D+00  .400000000000D+01
13 24  9  1  2  0  0.0  .674031209201D-03  .216004991671D-11  .000000000000D+00
     .177000000000D+03 -.114312500000D+03  .413481508879D-08 -.670860626461D+00
    -.572763383389D-05  .856509129517D-02  .980682671070D-05  .515370160103D+04
     .720000000000D+04  .298023223877D-07  .250640688785D+01  .141561031342D-06
     .972316821447D+00  .198312500000D+03  .953221404423D+00 -.794497379719D-08
    -.421446126351D-10  .100000000000D+01  .233000000000D+04  .000000000000D+00
     .240000000000D+01  .000000000000D+00 -.116415321827D-07  .177000000000D+03
     .000000000000D+00  .400000000000D+01
11 24  9  1  2  0  0.0 -.729165971279D-03 -.488853402203D-11  .000000000000D+00
     .280000000000D+02  .120718750000D+03  .416731644260D-08 -.114845682929D+01
     .615231692791D-05  .164507760201D-02  .835768878460D-05  .515376486206D+04
     .720000000000D+04  .141561031342D-06  .316104238645D+00 -.391155481339D-07
     .966452180361D+00  .225281250000D+03 -.255285335922D+01 -.794390232399D-08
     .128576784311D-09  .100000000000D+01  .233000000000D+04  .000000000000D+00
     .240000000000D+01  .000000000000D+00 -.884756445885D-08  .540000000000D+03
     .000000000000D+00  .400000000000D+01
18 24  9  1  2  0  0.0 -.650432892144D-03 -.261479726760D-11  .000000000000D+00
     .226000000000D+03  .109937500000D+03  .388337604391D-08 -.233355475182D+01
     .564567744732D-05  .458622176666D-02  .903755426407D-05  .515360337639D+04
     .720000000000D+04 -.353902578354D-07  .287901388546D+00 -.372529029846D-07
     .974731999717D+00  .212875000000D+03 -.301087599025D+01 -.774817988565D-08
     .225009372544D-09  .100000000000D+01  .233000000000D+04  .000000000000D+00
     .240000000000D+01  .000000000000D+00 -.838190317154D-08  .994000000000D+03
     .000000000000D+00  .400000000000D+01
14 24  9  1  2  0  0.0  .485372729599D-03  .864019966684D-11  .000000000000D+00
     .174000000000D+03  .418750000000D+01  .546272754453D-08  .224408658662D+01
     .260770320892D-06  .484759884421D-02  .461935997009D-05  .515368855286D+04
     .720000000000D+04 -.147148966789D-06 -.180201694266D+01  .633299350739D-07
     .944716815019D+00  .283906250000D+03 -.285556376508D+01 -.844642325600D-08
    -.317870383435D-10  .100000000000D+01  .233000000000D+04  .000000000000D+00
     .240000000000D+01  .000000000000D+00 -.791624188423D-08  .686000000000D+03
     .000000000000D+00  .400000000000D+01
3  24  9  1  1 59 28.0  .521494541317D-03  .139834810398D-10  .000000000000D+00
     .410000000000D+02 -.387500000000D+01  .405445459859D-08  .251855336646D+01
    -.229105353355D-06  .573817524128D-02  .131689012051D-05  .515366585350D+04
     .716800000000D+04  .819563865662D-07  .132119236051D+01 -.596046447754D-07
     .985485639878D+00  .365625000000D+03  .115373910756D+01 -.806640742682D-08
     .907180644858D-10  .100000000000D+01  .233000000000D+04  .000000000000D+00
     .240000000000D+01  .000000000000D+00  .139698386192D-08  .410000000000D+02
     .300000000000D+02  .400000000000D+01
25 24  9  1  1 59 44.0  .499522313476D-03  .113686837722D-12  .000000000000D+00
     .400000000000D+01  .119375000000D+02  .525129016589D-08  .223648952137D+01
     .352039933205D-06  .117002392653D-01  .456720590591D-05  .515373293114D+04
     .718400000000D+04 -.167638063431D-07 -.184373365943D+01 -.240281224251D-06
     .949414043089D+00  .283687500000D+03  .109183750940D+01 -.821641367518D-08
     .467876631797D-10  .100000000000D+01  .233000000000D+04  .000000000000D+00
     .240000000000D+01  .000000000000D+00  .558793544769D-08  .400000000000D+01
     .300000000000D+02  .400000000000D+01
10 24  9  1  2  0  0.0 -.111028552055D-03 -.117097442853D-10  .000000000000D+00
     .380000000000D+02  .113437500000D+02  .419696053454D-08  .159988093760D+01
     .517815351486D-06  .957781774923D-02  .148080289364D-05  .515368334770D+04
     .720000000000D+04 -.158324837685D-06  .131864094214D+01  .465661287308D-07
     .985130847134D+00  .364343750000D+03 -.237935502886D+01 -.825784397235D-08
     .300012496725D-10  .100000000000D+01  .233000000000D+04  .000000000000D+00
     .240000000000D+01  .000000000000D+00  .232830643654D-08  .380000000000D+02
     .300000000000D+02  .400000000000D+01
6  24  9  1  2  0  0.0  .612940639257D-04 -.253521648119D-10  .000000000000D+00
     .390000000000D+02  .119343750000D+03  .362729394850D-08 -.228895981833D+01
     .610947608948D-05  .299826625269D-02  .833347439766D-05  .515368976021D+04
     .720000000000D+04 -.111758708954D-07  .285202348577D+00  .465661287308D-07
     .989880264806D+00  .236250000000D+03 -.748606418851D+00 -.771246411223D-08
     .168221292806D-09  .100000000000D+01  .233000000000D+04  .000000000000D+00
     .240000000000D+01  .000000000000D+00  .372529029846D-08  .390000000000D+02
     .300000000000D+02  .400000000000D+01
8  24  9  1  2  0  0.0  .336611643434D-03  .136424205266D-10  .000000000000D+00
     .270000000000D+02 -.168750000000D+02  .471841082646D-08 -.368641306110D+00
    -.101327896118D-05  .960896466859D-02  .906363129616D-05  .515367796898D+04
     .720000000000D+04  .122934579849D-06 -.813269336321D+00  .150874257088D-06
     .951630598046D+00  .199968750000D+03  .368716665409D+00 -.817141180067D-08
    -.693600319809D-09  .100000000000D+01  .233000000000D+04  .000000000000D+00
     .240000000000D+01  .000000000000D+00  .465661287308D-08  .270000000000D+02
     .300000000000D+02  .400000000000D+01
9  24  9  1  2  0  0.0  .337610952556D-03  .158024704433D-10  .000000000000D+00
     .840000000000D+02 -.112125000000D+03  .438625413366D-08  .130964350002D+00
    -.602379441261D-05  .305249565281D-02  .809133052826D-05  .515361009789D+04
     .720000000000D+04 -.111758708954D-07  .233905961454D+01 -.279396772385D-07
     .959448025570D+00  .219718750000D+03  .197240503310D+01 -.809176562595D-08
    -.132862677121D-09  .100000000000D+01  .233000000000D+04  .000000000000D+00
     .240000000000D+01  .000000000000D+00  .465661287308D-09  .840000000000D+02
     .300000000000D+02  .400000000000D+01
27 24  9  1  2  0  0.0 -.335988588631D-04 -.341060513165D-12  .000000000000D+00
     .680000000000D+02 -.120000000000D+02  .458590530708D-08 -.318978403074D+00
    -.622123479843D-06  .125827317825D-01  .935792922974D-05  .515368382454D+04
     .720000000000D+04 -.204890966415D-07 -.785974446328D+00  .186264514923D-06
     .960685298776D+00  .197281250000D+03  .798258617716D+00 -.818819821418D-08
    -.672528013491D-09  .100000000000D+01  .233000000000D+04  .000000000000D+00
     .340000000000D+01  .000000000000D+00  .186264514923D-08  .680000000000D+02
     .300000000000D+02  .400000000000D+01
26 24  9  1  2  0  0.0  .887447968125D-04 -.807176547823D-11  .000000000000D+00
     .480000000000D+02  .161250000000D+02  .590703176587D-08  .149420407311D+01
     .104121863842D-05  .911604601424D-02  .454857945442D-05  .515368362808D+04
     .720000000000D+04 -.707805156708D-07 -.190806650016D+01  .240281224251D-06
     .930213780189D+00  .277875000000D+03  .548696885873D+00 -.882358182331D-08
     .435732435719D-10  .100000000000D+01  .233000000000D+04  .000000000000D+00
     .240000000000D+01  .000000000000D+00  .651925802231D-08  .480000000000D+02
     .300000000000D+02  .400000000000D+01
24 24  9  1  2  0  0.0 -.486780423671D-03 -.113686837722D-12  .000000000000D+00
     .101000000000D+03 -.912500000000D+01  .497092134454D-08 -.224809090647D+01
    -.694766640663D-06  .158036209177D-01  .105574727058D-04  .515370509148D+04
     .720000000000D+04  .255182385445D-06 -.297070911814D+01 -.409781932831D-07
     .934509545502D+00  .156562500000D+03  .100211984791D+01 -.790318634229D-08
     .707529471442D-09  .100000000000D+01  .233000000000D+04  .000000000000D+00
     .240000000000D+01  .000000000000D+00  .232830643654D-08  .101000000000D+03
     .300000000000D+02  .400000000000D+01
32 24  9  1  2  0  0.0 -.601246487349D-03  .329691829393D-11  .000000000000D+00
     .118000000000D+03 -.112843750000D+03  .438303971405D-08  .333518954437D+00
    -.605732202530D-05  .782705540769D-02  .778026878834D-05  .515372485924D+04
     .720000000000D+04 -.128522515297D-06  .235405653344D+01  .894069671631D-07
     .962822408504D+00  .233781250000D+03 -.213353925822D+01 -.810926635492D-08
    -.148220459691D-09  .100000000000D+01  .233000000000D+04  .000000000000D+00
     .240000000000D+01  .000000000000D+00  .931322574615D-09  .118000000000D+03
     .300000000000D+02  .400000000000D+01
30 24  9  1  2  0  0.0 -.329691451043D-03  .693489710102D-11  .000000000000D+00
     .850000000000D+02  .126250000000D+02  .507521140293D-08  .293662445961D+01
     .663101673126D-06  .716999534052D-02  .105462968349D-04  .515359139442D+04
     .720000000000D+04 -.428408384323D-07 -.287287269434D+01 -.763684511185D-07
     .935885991957D+00  .166093750000D+03 -.244687118957D+01 -.803390607301D-08
     .610739725475D-09  .100000000000D+01  .233000000000D+04  .000000000000D+00
     .240000000000D+01  .000000000000D+00  .372529029846D-08  .850000000000D+02
     .300000000000D+02  .400000000000D+01
